CAS-2T & KS-1Q          
1 41847U 16066G   21133.75864431  .00000067  00000-0  21140-4 0  9996
2 41847  98.6038 192.7354 0364582 324.1197  33.5990 14.38184641236893
NAYIF-1 (EO-88)         
1 42017U 17008BX  21133.72421031  .00002875  00000-0  10789-3 0  9990
2 42017  97.3174 201.9455 0004851 217.6663 142.4237 15.28011356235951
ZHUHAI-1 02 (CAS-4B)    
1 42759U 17034B   21134.11418895  .00000673  00000-0  53846-4 0  9996
2 42759  43.0197   9.8709 0010058 305.1553 217.0758 15.10191322215959
ZHUHAI-1 01 (CAS-4A)    
1 42761U 17034D   21134.10682255  .00001050  00000-0  76334-4 0  9998
2 42761  43.0196   8.9882 0010427 306.8991 213.7861 15.10274115215957
MAX VALIER SAT          
1 42778U 17036P   21133.69171617  .00001517  00000-0  66359-4 0  9990
2 42778  97.2579 183.4379 0010228 303.7199  56.3063 15.23510087215990
RADFXSAT (FOX-1B)       
1 43017U 17073E   21133.70742487  .00001235  00000-0  99289-4 0  9994
2 43017  97.7093  39.0682 0256474  53.9422 308.5256 14.79487355187988
FOX-1D (AO-92)          
1 43137U 18004AC  21133.75802164  .00001685  00000-0  70083-4 0  9996
2 43137  97.4077 208.1434 0008133 344.4975  15.6013 15.25149839185363
DIWATA-2B               
1 43678U 18084H   21134.24445733  .00000833  00000-0  88380-4 0  9997
2 43678  97.9187 259.3581 0010887 155.8802 204.2958 14.91746631138337
ES'HAIL 2               
1 43700U 18090A   21133.68060187  .00000154  00000-0  00000+0 0  9997
2 43700   0.0115 319.2611 0000920  89.7422  93.4558  1.00272366  9267
FOX-1CLIFF (AO-95)      
1 43770U 18099N   21133.71989815  .00000296  00000-0  31979-4 0  9996
2 43770  97.6661 204.6716 0014885 168.3586 191.7982 14.95291247133263
ITASAT 1                
1 43786U 18099AE  21133.71287840  .00000000  00000-0  51389-5 0  9993
2 43786  97.6681 205.3184 0015626 161.9253 198.2527 14.95590782133299
JY1SAT (JO-97)          
1 43803U 18099AX  21133.74930786  .00000982  00000-0  92820-4 0  9993
2 43803  97.6645 205.1100 0015715 160.9610 199.2202 14.95832614133306
UWE-4                   
1 43880U 18111E   21133.68934491  .00001067  00000-0  98100-4 0  9995
2 43880  97.6892  42.0119 0011161 213.8147 146.2364 14.96836131127883
PSAT2 (NO-104)          
1 44354U 19036R   21133.74295361  .00011216  00000-0  14691-3 0  9991
2 44354  28.5320 358.3100 0328405 259.9627  96.3762 15.12735919103701
BRICSAT2 (NO-103)       
1 44355U 19036S   21133.73753833  .00026248  00000-0  29424-3 0  9995
2 44355  28.5250 318.7290 0270714 324.5310  33.7557 15.27649250104101
JAISAT-1                
1 44419U 19038F   21133.47094337  .00001408  00000-0  81571-4 0  9999
2 44419  97.5861  98.3101 0022803  74.1274 286.2469 15.13669277102504
DUCHIFAT-3              
1 44854U 19089C   21134.16671492  .00000476  00000-0  44461-4 0  9999
2 44854  36.9660 303.3954 0008853 230.3785 129.6184 14.99464491 77956
RS-44 & BREEZE-KM R/B   
1 44909U 19096E   21133.52332387  .00000005  00000-0 -27051-4 0  9999
2 44909  82.5178 136.0230 0217481 174.4767 185.8810 12.79709941 64351
ORBITAL FACTORY 2 (OF-2)
1 45113U 19071C   21133.58978949  .00003374  00000-0  10698-3 0  9995
2 45113  51.6418 206.5243 0011912 165.6817 194.4506 15.35547885 71818
HUSKYSAT-1 (HO-107)     
1 45119U 19071J   21133.73212666  .00003567  00000-0  11232-3 0  9994
2 45119  51.6413 205.2211 0011345 162.6535 197.4837 15.35591864 71832
BY70-2                  
1 45857U 20042B   21134.22987927  .00001874  00000-0  27348-3 0  9991
2 45857  97.9824 210.3352 0009484 331.0444  29.0278 14.76936617 46491
SALSAT                  
1 46495U 20068K   21133.58602038  .00000200  00000-0  19186-4 0  9997
2 46495  97.6902  71.2918 0016461 187.0754 173.0250 15.03421710 34099
BY70-3                  
1 46839U 20079N   21134.19078922  .00004376  00000-0  13762-3 0  9999
2 46839  97.2414 208.7299 0006073 343.5609 101.4712 15.33467397 28950
RADFXSAT-2 (AO-109)     
1 47311U 21002C   21134.12270320  .00001822  00000-0  91275-4 0  9990
2 47311  60.6877  59.6997 0032322  30.3053 329.9893 15.21554584 17655
UVSQ-SAT                
1 47438U 21006AB  21134.12563094  .00001053  00000-0  63137-4 0  9999
2 47438  97.4895 195.9605 0011938 210.0583 149.9964 15.13063670 16861
DIY-1 (ARDUIQUBE)       
1 47963U 21022AH  21133.70554254  .00002228  00000-0  15191-3 0  9992
2 47963  97.5610  36.6544 0021666  65.2273 295.1206 15.07080561  6669
